{
  "type": "FeatureCollection",
  "features": [
    {
      "type": "Feature",
      "properties": {
        "norad_id": 66767,
        "name": "TRANSPORTER-15DF",
        "group": "last-30-days",
        "lat": -36.7536246016773,
        "lon": 78.03160651384307,
        "alt_km": 517.9616614749657,
        "timestamp": "2025-12-26T21:25:51.733664+00:00",
        "meta_object_name": "TRANSPORTER-15DF",
        "meta_object_id": "2025-276DF",
        "meta_epoch": "2025-12-26T15:16:03.309888",
        "meta_mean_motion": 15.18363186,
        "meta_eccentricity": 0.00020558,
        "meta_inclination": 97.4365,
        "meta_ra_of_asc_node": 72.1811,
        "meta_arg_of_pericenter": 86.3097,
        "meta_mean_anomaly": 273.8372,
        "meta_ephemeris_type": 0,
        "meta_classification_type": "U",
        "meta_norad_cat_id": 66767,
        "meta_element_set_no": 999,
        "meta_rev_at_epoch": 423,
        "meta_bstar": 0.00022781714,
        "meta_mean_motion_dot": 4.613e-05,
        "meta_mean_motion_ddot": 0,
        "tle_line1": "1 66767U 25276DF  25360.63614942  .00004613  00000+0  22782-3 0  9992",
        "tle_line2": "2 66767  97.4365  72.1811 0002055  86.3097 273.8372 15.18363186  4236"
      },
      "geometry": {
        "type": "Point",
        "coordinates": [
          78.03160651384307,
          -36.7536246016773
        ]
      }
    },
    {
      "type": "Feature",
      "properties": {
        "norad_id": 66768,
        "name": "TRANSPORTER-15DG",
        "group": "last-30-days",
        "lat": -22.43319632519786,
        "lon": 75.52566945411164,
        "alt_km": 515.7007326699913,
        "timestamp": "2025-12-26T21:25:51.733674+00:00",
        "meta_object_name": "TRANSPORTER-15DG",
        "meta_object_id": "2025-276DG",
        "meta_epoch": "2025-12-26T15:12:17.159616",
        "meta_mean_motion": 15.18580678,
        "meta_eccentricity": 0.00020717,
        "meta_inclination": 97.4349,
        "meta_ra_of_asc_node": 72.1801,
        "meta_arg_of_pericenter": 72.7329,
        "meta_mean_anomaly": 287.4132,
        "meta_ephemeris_type": 0,
        "meta_classification_type": "U",
        "meta_norad_cat_id": 66768,
        "meta_element_set_no": 999,
        "meta_rev_at_epoch": 423,
        "meta_bstar": 0.00044756312,
        "meta_mean_motion_dot": 9.191e-05,
        "meta_mean_motion_ddot": 0,
        "tle_line1": "1 66768U 25276DG  25360.63353194  .00009191  00000+0  44756-3 0  9993",
        "tle_line2": "2 66768  97.4349  72.1801 0002071  72.7329 287.4132 15.18580678  4235"
      },
      "geometry": {
        "type": "Point",
        "coordinates": [
          75.52566945411164,
          -22.43319632519786
        ]
      }
    },
    {
      "type": "Feature",
      "properties": {
        "norad_id": 66769,
        "name": "TRANSPORTER-15DH",
        "group": "last-30-days",
        "lat": -28.997426203572836,
        "lon": 76.60741956036092,
        "alt_km": 517.66162814768,
        "timestamp": "2025-12-26T21:25:51.733684+00:00",
        "meta_object_name": "TRANSPORTER-15DH",
        "meta_object_id": "2025-276DH",
        "meta_epoch": "2025-12-26T15:14:00.341088",
        "meta_mean_motion": 15.18450004,
        "meta_eccentricity": 0.00027194,
        "meta_inclination": 97.441,
        "meta_ra_of_asc_node": 72.1993,
        "meta_arg_of_pericenter": 100.884,
        "meta_mean_anomaly": 259.27,
        "meta_ephemeris_type": 0,
        "meta_classification_type": "U",
        "meta_norad_cat_id": 66769,
        "meta_element_set_no": 999,
        "meta_rev_at_epoch": 423,
        "meta_bstar": 0.00031739426,
        "meta_mean_motion_dot": 6.471e-05,
        "meta_mean_motion_ddot": 0,
        "tle_line1": "1 66769U 25276DH  25360.63472617  .00006471  00000+0  31739-3 0  9991",
        "tle_line2": "2 66769  97.4410  72.1993 0002719 100.8840 259.2700 15.18450004  4234"
      },
      "geometry": {
        "type": "Point",
        "coordinates": [
          76.60741956036092,
          -28.997426203572836
        ]
      }
    },
    {
      "type": "Feature",
      "properties": {
        "norad_id": 66770,
        "name": "TRANSPORTER-15DJ",
        "group": "last-30-days",
        "lat": -27.572819424193998,
        "lon": 76.37989150499651,
        "alt_km": 518.2344425632991,
        "timestamp": "2025-12-26T21:25:51.733694+00:00",
        "meta_object_name": "TRANSPORTER-15DJ",
        "meta_object_id": "2025-276DJ",
        "meta_epoch": "2025-12-26T15:13:37.185888",
        "meta_mean_motion": 15.184193,
        "meta_eccentricity": 0.00032525,
        "meta_inclination": 97.4439,
        "meta_ra_of_asc_node": 72.2106,
        "meta_arg_of_pericenter": 115.3243,
        "meta_mean_anomaly": 244.8328,
        "meta_ephemeris_type": 0,
        "meta_classification_type": "U",
        "meta_norad_cat_id": 66770,
        "meta_element_set_no": 999,
        "meta_rev_at_epoch": 423,
        "meta_bstar": 0.00059826394,
        "meta_mean_motion_dot": 0.00012256,
        "meta_mean_motion_ddot": 0,
        "tle_line1": "1 66770U 25276DJ  25360.63445817  .00012256  00000+0  59826-3 0  9990",
        "tle_line2": "2 66770  97.4439  72.2106 0003252 115.3243 244.8328 15.18419300  4235"
      },
      "geometry": {
        "type": "Point",
        "coordinates": [
          76.37989150499651,
          -27.572819424193998
        ]
      }
    },
    {
      "type": "Feature",
      "properties": {
        "norad_id": 66771,
        "name": "TRANSPORTER-15DK",
        "group": "last-30-days",
        "lat": -23.995070820905926,
        "lon": 75.8006475304074,
        "alt_km": 517.3057703261848,
        "timestamp": "2025-12-26T21:25:51.733706+00:00",
        "meta_object_name": "TRANSPORTER-15DK",
        "meta_object_id": "2025-276DK",
        "meta_epoch": "2025-12-26T15:12:41.262624",
        "meta_mean_motion": 15.18513229,
        "meta_eccentricity": 0.00030299,
        "meta_inclination": 97.4435,
        "meta_ra_of_asc_node": 72.2093,
        "meta_arg_of_pericenter": 108.2696,
        "meta_mean_anomaly": 251.8868,
        "meta_ephemeris_type": 0,
        "meta_classification_type": "U",
        "meta_norad_cat_id": 66771,
        "meta_element_set_no": 999,
        "meta_rev_at_epoch": 423,
        "meta_bstar": 0.0003636262,
        "meta_mean_motion_dot": 7.438e-05,
        "meta_mean_motion_ddot": 0,
        "tle_line1": "1 66771U 25276DK  25360.63381091  .00007438  00000+0  36363-3 0  9991",
        "tle_line2": "2 66771  97.4435  72.2093 0003029 108.2696 251.8868 15.18513229  4234"
      },
      "geometry": {
        "type": "Point",
        "coordinates": [
          75.8006475304074,
          -23.995070820905926
        ]
      }
    },
    {
      "type": "Feature",
      "properties": {
        "norad_id": 66772,
        "name": "TRANSPORTER-15DL",
        "group": "last-30-days",
        "lat": -8.222135245721523,
        "lon": 73.54971354085419,
        "alt_km": 514.0816695449339,
        "timestamp": "2025-12-26T21:25:51.733716+00:00",
        "meta_object_name": "TRANSPORTER-15DL",
        "meta_object_id": "2025-276DL",
        "meta_epoch": "2025-12-26T15:08:32.813376",
        "meta_mean_motion": 15.18748482,
        "meta_eccentricity": 0.00028978,
        "meta_inclination": 97.4426,
        "meta_ra_of_asc_node": 72.2094,
        "meta_arg_of_pericenter": 93.9561,
        "meta_mean_anomaly": 266.2005,
        "meta_ephemeris_type": 0,
        "meta_classification_type": "U",
        "meta_norad_cat_id": 66772,
        "meta_element_set_no": 999,
        "meta_rev_at_epoch": 423,
        "meta_bstar": 0.00061491926,
        "meta_mean_motion_dot": 0.0001272,
        "meta_mean_motion_ddot": 0,
        "tle_line1": "1 66772U 25276DL  25360.63093534  .00012720  00000+0  61492-3 0  9995",
        "tle_line2": "2 66772  97.4426  72.2094 0002897  93.9561 266.2005 15.18748482  4233"
      },
      "geometry": {
        "type": "Point",
        "coordinates": [
          73.54971354085419,
          -8.222135245721523
        ]
      }
    },
    {
      "type": "Feature",
      "properties": {
        "norad_id": 66773,
        "name": "TRANSPORTER-15DM",
        "group": "last-30-days",
        "lat": -17.021342111616867,
        "lon": 74.75607101888566,
        "alt_km": 515.8874482080946,
        "timestamp": "2025-12-26T21:25:51.733728+00:00",
        "meta_object_name": "TRANSPORTER-15DM",
        "meta_object_id": "2025-276DM",
        "meta_epoch": "2025-12-26T15:10:50.661120",
        "meta_mean_motion": 15.1857334,
        "meta_eccentricity": 0.00030436,
        "meta_inclination": 97.4422,
        "meta_ra_of_asc_node": 72.2063,
        "meta_arg_of_pericenter": 94.8055,
        "meta_mean_anomaly": 265.3527,
        "meta_ephemeris_type": 0,
        "meta_classification_type": "U",
        "meta_norad_cat_id": 66773,
        "meta_element_set_no": 999,
        "meta_rev_at_epoch": 423,
        "meta_bstar": 0.00053606879,
        "meta_mean_motion_dot": 0.00011022,
        "meta_mean_motion_ddot": 0,
        "tle_line1": "1 66773U 25276DM  25360.63253080  .00011022  00000+0  53607-3 0  9993",
        "tle_line2": "2 66773  97.4422  72.2063 0003043  94.8055 265.3527 15.18573340  4236"
      },
      "geometry": {
        "type": "Point",
        "coordinates": [
          74.75607101888566,
          -17.021342111616867
        ]
      }
    }
  ]
}